1 23545U 95017A   19282.80549299  .00000307  00000-0  61405-4 0  9999
2 23545  69.9682  96.8393 0005522 196.8337 163.2625 14.71427632306393
1 23545U 95017A   19282.87347306 +.00000302 +00000-0 +60489-4 0  9997
2 23545 069.9682 096.6748 0005519 196.7615 163.3349 14.71427638306085
1 23545U 95017A   19283.82519323  .00000305  00000-0  61077-4 0  9990
2 23545  69.9683  94.3710 0005439 195.5210 164.5769 14.71428378306541
1 23545U 95017A   19283.89317332 +.00000294 +00000-0 +59207-4 0  9992
2 23545 069.9683 094.2064 0005432 195.4300 164.6680 14.71428342306234
